[{"OBJECT_NAME":"METOP-C","OBJECT_ID":"2018-087A","EPOCH":"2026-04-26T21:30:29.343744","MEAN_MOTION":14.21511843,"ECCENTRICITY":8.061e-5,"INCLINATION":98.6679,"RA_OF_ASC_NODE":177.4283,"ARG_OF_PERICENTER":39.939,"MEAN_ANOMALY":320.1846,"EPHEMERIS_TYPE":0,"CLASSIFICATION_TYPE":"U","NORAD_CAT_ID":43689,"ELEMENT_SET_NO":999,"REV_AT_EPOCH":38754,"BSTAR":6.433985e-5,"MEAN_MOTION_DOT":9.7e-7,"MEAN_MOTION_DDOT":0},{"OBJECT_NAME":"GEO-KOMPSAT-2A","OBJECT_ID":"2018-100A","EPOCH":"2026-04-26T22:43:57.014688","MEAN_MOTION":1.00270973,"ECCENTRICITY":0.00020056,"INCLINATION":0.0568,"RA_OF_ASC_NODE":67.9377,"ARG_OF_PERICENTER":358.3688,"MEAN_ANOMALY":257.888,"EPHEMERIS_TYPE":0,"CLASSIFICATION_TYPE":"U","NORAD_CAT_ID":43823,"ELEMENT_SET_NO":999,"REV_AT_EPOCH":2711,"BSTAR":0,"MEAN_MOTION_DOT":-3.55e-6,"MEAN_MOTION_DDOT":0},{"OBJECT_NAME":"METEOR-M2 2","OBJECT_ID":"2019-038A","EPOCH":"2026-04-26T23:09:10.612224","MEAN_MOTION":14.24350263,"ECCENTRICITY":0.000177,"INCLINATION":98.9132,"RA_OF_ASC_NODE":103.5008,"ARG_OF_PERICENTER":127.4204,"MEAN_ANOMALY":232.7136,"EPHEMERIS_TYPE":0,"CLASSIFICATION_TYPE":"U","NORAD_CAT_ID":44387,"ELEMENT_SET_NO":999,"REV_AT_EPOCH":35400,"BSTAR":-5.0816226e-5,"MEAN_MOTION_DOT":-1.63e-6,"MEAN_MOTION_DDOT":0},{"OBJECT_NAME":"ARKTIKA-M 1","OBJECT_ID":"2021-016A","EPOCH":"2026-04-23T03:56:17.933280","MEAN_MOTION":2.00609676,"ECCENTRICITY":0.72664948,"INCLINATION":63.2246,"RA_OF_ASC_NODE":65.5569,"ARG_OF_PERICENTER":269.6808,"MEAN_ANOMALY":14.9538,"EPHEMERIS_TYPE":0,"CLASSIFICATION_TYPE":"U","NORAD_CAT_ID":47719,"ELEMENT_SET_NO":999,"REV_AT_EPOCH":3768,"BSTAR":0,"MEAN_MOTION_DOT":-1.01e-6,"MEAN_MOTION_DDOT":0},{"OBJECT_NAME":"FENGYUN 3E","OBJECT_ID":"2021-062A","EPOCH":"2026-04-26T23:19:53.310720","MEAN_MOTION":14.19899692,"ECCENTRICITY":8.454e-5,"INCLINATION":98.7512,"RA_OF_ASC_NODE":120.9505,"ARG_OF_PERICENTER":192.5186,"MEAN_ANOMALY":167.5969,"EPHEMERIS_TYPE":0,"CLASSIFICATION_TYPE":"U","NORAD_CAT_ID":49008,"ELEMENT_SET_NO":999,"REV_AT_EPOCH":24931,"BSTAR":5.992921e-6,"MEAN_MOTION_DOT":-3.1e-7,"MEAN_MOTION_DDOT":0},{"OBJECT_NAME":"GOES 18","OBJECT_ID":"2022-021A","EPOCH":"2026-04-26T18:03:01.177344","MEAN_MOTION":1.00272846,"ECCENTRICITY":5.124e-5,"INCLINATION":0.0454,"RA_OF_ASC_NODE":68.8293,"ARG_OF_PERICENTER":19.435,"MEAN_ANOMALY":260.2358,"EPHEMERIS_TYPE":0,"CLASSIFICATION_TYPE":"U","NORAD_CAT_ID":51850,"ELEMENT_SET_NO":999,"REV_AT_EPOCH":607,"BSTAR":0,"MEAN_MOTION_DOT":8.5e-7,"MEAN_MOTION_DDOT":0},{"OBJECT_NAME":"NOAA 21 (JPSS-2)","OBJECT_ID":"2022-150A","EPOCH":"2026-04-26T20:42:28.513728","MEAN_MOTION":14.19555786,"ECCENTRICITY":0.00018036,"INCLINATION":98.7034,"RA_OF_ASC_NODE":56.5213,"ARG_OF_PERICENTER":21.2722,"MEAN_ANOMALY":338.8529,"EPHEMERIS_TYPE":0,"CLASSIFICATION_TYPE":"U","NORAD_CAT_ID":54234,"ELEMENT_SET_NO":999,"REV_AT_EPOCH":17926,"BSTAR":5.5677217e-5,"MEAN_MOTION_DOT":7.4e-7,"MEAN_MOTION_DDOT":0},{"OBJECT_NAME":"METEOSAT-12 (MTG-I1)","OBJECT_ID":"2022-170C","EPOCH":"2026-04-26T22:07:23.020608","MEAN_MOTION":1.00269615,"ECCENTRICITY":0.00011196,"INCLINATION":0.7245,"RA_OF_ASC_NODE":22.4196,"ARG_OF_PERICENTER":334.3833,"MEAN_ANOMALY":189.6263,"EPHEMERIS_TYPE":0,"CLASSIFICATION_TYPE":"U","NORAD_CAT_ID":54743,"ELEMENT_SET_NO":999,"REV_AT_EPOCH":1246,"BSTAR":0,"MEAN_MOTION_DOT":-1.9e-7,"MEAN_MOTION_DDOT":0},{"OBJECT_NAME":"TIANMU-1 03","OBJECT_ID":"2023-039A","EPOCH":"2026-04-26T22:25:55.941600","MEAN_MOTION":15.45801029,"ECCENTRICITY":0.0001655,"INCLINATION":97.5218,"RA_OF_ASC_NODE":288.9617,"ARG_OF_PERICENTER":279.4833,"MEAN_ANOMALY":80.6229,"EPHEMERIS_TYPE":0,"CLASSIFICATION_TYPE":"U","NORAD_CAT_ID":55973,"ELEMENT_SET_NO":999,"REV_AT_EPOCH":17291,"BSTAR":0.00034750152,"MEAN_MOTION_DOT":0.00016758,"MEAN_MOTION_DDOT":0},{"OBJECT_NAME":"TIANMU-1 04","OBJECT_ID":"2023-039B","EPOCH":"2026-04-26T22:38:00.076416","MEAN_MOTION":15.46346715,"ECCENTRICITY":0.00023318,"INCLINATION":97.5152,"RA_OF_ASC_NODE":288.1232,"ARG_OF_PERICENTER":273.6712,"MEAN_ANOMALY":86.4271,"EPHEMERIS_TYPE":0,"CLASSIFICATION_TYPE":"U","NORAD_CAT_ID":55974,"ELEMENT_SET_NO":999,"REV_AT_EPOCH":17292,"BSTAR":0.00036344048,"MEAN_MOTION_DOT":0.00017865,"MEAN_MOTION_DDOT":0},{"OBJECT_NAME":"TIANMU-1 05","OBJECT_ID":"2023-039C","EPOCH":"2026-04-26T21:54:57.172608","MEAN_MOTION":15.45737907,"ECCENTRICITY":0.0001612,"INCLINATION":97.5198,"RA_OF_ASC_NODE":288.5729,"ARG_OF_PERICENTER":323.1755,"MEAN_ANOMALY":36.9383,"EPHEMERIS_TYPE":0,"CLASSIFICATION_TYPE":"U","NORAD_CAT_ID":55975,"ELEMENT_SET_NO":999,"REV_AT_EPOCH":17289,"BSTAR":0.00035379677,"MEAN_MOTION_DOT":0.00017027,"MEAN_MOTION_DDOT":0},{"OBJECT_NAME":"TIANMU-1 06","OBJECT_ID":"2023-039D","EPOCH":"2026-04-26T22:38:50.186688","MEAN_MOTION":15.46273534,"ECCENTRICITY":0.00018072,"INCLINATION":97.5206,"RA_OF_ASC_NODE":289.1901,"ARG_OF_PERICENTER":309.1682,"MEAN_ANOMALY":50.9407,"EPHEMERIS_TYPE":0,"CLASSIFICATION_TYPE":"U","NORAD_CAT_ID":55976,"ELEMENT_SET_NO":999,"REV_AT_EPOCH":17292,"BSTAR":0.00035731751,"MEAN_MOTION_DOT":0.00017517,"MEAN_MOTION_DDOT":0},{"OBJECT_NAME":"FENGYUN 3G","OBJECT_ID":"2023-055A","EPOCH":"2026-04-26T20:00:08.770176","MEAN_MOTION":15.52402329,"ECCENTRICITY":0.00060194,"INCLINATION":49.9926,"RA_OF_ASC_NODE":250.8699,"ARG_OF_PERICENTER":324.215,"MEAN_ANOMALY":35.8413,"EPHEMERIS_TYPE":0,"CLASSIFICATION_TYPE":"U","NORAD_CAT_ID":56232,"ELEMENT_SET_NO":999,"REV_AT_EPOCH":17202,"BSTAR":0.00053586844,"MEAN_MOTION_DOT":0.00033062,"MEAN_MOTION_DDOT":0},{"OBJECT_NAME":"METEOR-M2 3","OBJECT_ID":"2023-091A","EPOCH":"2026-04-26T21:03:09.078624","MEAN_MOTION":14.24042263,"ECCENTRICITY":0.00032439,"INCLINATION":98.6123,"RA_OF_ASC_NODE":172.8946,"ARG_OF_PERICENTER":335.5965,"MEAN_ANOMALY":24.506,"EPHEMERIS_TYPE":0,"CLASSIFICATION_TYPE":"U","NORAD_CAT_ID":57166,"ELEMENT_SET_NO":999,"REV_AT_EPOCH":14721,"BSTAR":2.16564e-5,"MEAN_MOTION_DOT":6.0e-8,"MEAN_MOTION_DDOT":0},{"OBJECT_NAME":"TIANMU-1 07","OBJECT_ID":"2023-101A","EPOCH":"2026-04-26T20:59:05.296704","MEAN_MOTION":15.29259306,"ECCENTRICITY":0.00013968,"INCLINATION":97.2641,"RA_OF_ASC_NODE":168.7314,"ARG_OF_PERICENTER":11.7423,"MEAN_ANOMALY":348.385,"EPHEMERIS_TYPE":0,"CLASSIFICATION_TYPE":"U","NORAD_CAT_ID":57399,"ELEMENT_SET_NO":999,"REV_AT_EPOCH":15380,"BSTAR":0.00024361371,"MEAN_MOTION_DOT":6.842e-5,"MEAN_MOTION_DDOT":0},{"OBJECT_NAME":"TIANMU-1 08","OBJECT_ID":"2023-101B","EPOCH":"2026-04-26T21:46:30.093600","MEAN_MOTION":15.29290001,"ECCENTRICITY":0.00022443,"INCLINATION":97.263,"RA_OF_ASC_NODE":168.5399,"ARG_OF_PERICENTER":316.0755,"MEAN_ANOMALY":44.0307,"EPHEMERIS_TYPE":0,"CLASSIFICATION_TYPE":"U","NORAD_CAT_ID":57400,"ELEMENT_SET_NO":999,"REV_AT_EPOCH":15380,"BSTAR":0.00029249569,"MEAN_MOTION_DOT":8.239e-5,"MEAN_MOTION_DDOT":0},{"OBJECT_NAME":"TIANMU-1 09","OBJECT_ID":"2023-101C","EPOCH":"2026-04-26T21:23:02.977152","MEAN_MOTION":15.29296612,"ECCENTRICITY":0.00019019,"INCLINATION":97.2588,"RA_OF_ASC_NODE":167.9678,"ARG_OF_PERICENTER":3.5582,"MEAN_ANOMALY":356.5672,"EPHEMERIS_TYPE":0,"CLASSIFICATION_TYPE":"U","NORAD_CAT_ID":57401,"ELEMENT_SET_NO":999,"REV_AT_EPOCH":15380,"BSTAR":0.00025263844,"MEAN_MOTION_DOT":7.107e-5,"MEAN_MOTION_DDOT":0}]
