METOP-C                 
1 43689U 18087A   26116.89617296  .00000097  00000+0  64340-4 0  9994
2 43689  98.6679 177.4283 0000806  39.9390 320.1846 14.21511843387547
GEO-KOMPSAT-2A          
1 43823U 18100A   26116.94718767 -.00000355  00000+0  00000+0 0  9997
2 43823   0.0568  67.9377 0002005 358.3688 257.8880  1.00270973 27116
METEOR-M2 2             
1 44387U 19038A   26116.96470616 -.00000163  00000+0 -50816-4 0  9997
2 44387  98.9132 103.5008 0001770 127.4204 232.7136 14.24350263354008
ARKTIKA-M 1             
1 47719U 21016A   26113.16409645 -.00000101  00000+0  00000+0 0  9997
2 47719  63.2246  65.5569 7266494 269.6808  14.9538  2.00609676 37686
FENGYUN 3E              
1 49008U 21062A   26116.97214480 -.00000031  00000+0  59929-5 0  9996
2 49008  98.7512 120.9505 0000845 192.5186 167.5969 14.19899692249316
GOES 18                 
1 51850U 22021A   26116.75209696  .00000085  00000+0  00000+0 0  9997
2 51850   0.0454  68.8293 0000512  19.4350 260.2358  1.00272846  6079
NOAA 21 (JPSS-2)        
1 54234U 22150A   26116.86283002  .00000074  00000+0  55677-4 0  9997
2 54234  98.7034  56.5213 0001803  21.2722 338.8529 14.19555786179265
METEOSAT-12 (MTG-I1)    
1 54743U 22170C   26116.92179422 -.00000019  00000+0  00000+0 0  9996
2 54743   0.7245  22.4196 0001119 334.3833 189.6263  1.00269615 12464
TIANMU-1 03             
1 55973U 23039A   26116.93467525  .00016758  00000+0  34750-3 0  9991
2 55973  97.5218 288.9617 0001655 279.4833  80.6229 15.45801029172919
TIANMU-1 04             
1 55974U 23039B   26116.94305644  .00017865  00000+0  36344-3 0  9997
2 55974  97.5152 288.1232 0002331 273.6712  86.4271 15.46346715172925
TIANMU-1 05             
1 55975U 23039C   26116.91316172  .00017027  00000+0  35380-3 0  9992
2 55975  97.5198 288.5729 0001612 323.1755  36.9383 15.45737907172896
TIANMU-1 06             
1 55976U 23039D   26116.94363642  .00017517  00000+0  35732-3 0  9995
2 55976  97.5206 289.1901 0001807 309.1682  50.9407 15.46273534172924
FENGYUN 3G              
1 56232U 23055A   26116.83343484  .00033062  00000+0  53587-3 0  9990
2 56232  49.9926 250.8699 0006019 324.2150  35.8413 15.52402329172020
METEOR-M2 3             
1 57166U 23091A   26116.87718841  .00000006  00000+0  21656-4 0  9999
2 57166  98.6123 172.8946 0003243 335.5965  24.5060 14.24042263147211
TIANMU-1 07             
1 57399U 23101A   26116.87436686  .00006842  00000+0  24361-3 0  9992
2 57399  97.2641 168.7314 0001396  11.7423 348.3850 15.29259306153801
TIANMU-1 08             
1 57400U 23101B   26116.90729275  .00008239  00000+0  29250-3 0  9992
2 57400  97.2630 168.5399 0002244 316.0755  44.0307 15.29290001153809
TIANMU-1 09             
1 57401U 23101C   26116.89100668  .00007107  00000+0  25264-3 0  9994
2 57401  97.2588 167.9678 0001901   3.5582 356.5672 15.29296612153800
